start=new Date('2021-09-19T00:00:00.000Z').valueOf();
sats=[{"OBJECT_NAME":"STARLINK-1591","ECCENTRICITY":"0.00007670","ELEMENT_SET_NO":"999","MEAN_MOTION_DDOT":"0.0000000000000","ARG_OF_PERICENTER":"66.1741","BSTAR":"0.00008394000000","OBJECT_ID":"2020-055U","SITE":"AFETR","EPOCH":"2021-09-18T17:18:50.052960","PERIAPSIS":"546.668","NORAD_CAT_ID":"46045","FILE":"3118781","OBJECT_TYPE":"PAYLOAD","INCLINATION":"53.0533","COUNTRY_CODE":"US","LAUNCH_DATE":"2020-08-07","REF_FRAME":"TEME","RCS_SIZE":"LARGE","PERIOD":"95.592","TIME_SYSTEM":"UTC","RA_OF_ASC_NODE":"257.3078","TLE_LINE1":"1 46045U 20055U   21261.72141265  .00000969  00000-0  83940-4 0  9993","MEAN_ELEMENT_THEORY":"SGP4","MEAN_ANOMALY":"293.9328","APOAPSIS":"547.730","MEAN_MOTION":"15.06404708","CENTER_NAME":"EARTH","GP_ID":"184972707","MEAN_MOTION_DOT":"0.00000969","SEMIMAJOR_AXIS":"6925.334","REV_AT_EPOCH":"6274","DECAY_DATE":null,"CLASSIFICATION_TYPE":"U","EPHEMERIS_TYPE":"0","TLE_LINE2":"2 46045  53.0533 257.3078 0000767  66.1741 293.9328 15.06404708 62747"},{"SEMIMAJOR_AXIS":"6865.868","REV_AT_EPOCH":"6288","MEAN_MOTION_DOT":"0.00331596","CENTER_NAME":"EARTH","GP_ID":"184972457","MEAN_MOTION":"15.26017837","APOAPSIS":"488.487","EPHEMERIS_TYPE":"0","TLE_LINE2":"2 46046  53.0545 246.3668 0001098  76.8577 283.2543 15.26017837 62888","CLASSIFICATION_TYPE":"U","DECAY_DATE":null,"RA_OF_ASC_NODE":"246.3668","TIME_SYSTEM":"UTC","PERIOD":"94.363","MEAN_ANOMALY":"283.2543","MEAN_ELEMENT_THEORY":"SGP4","TLE_LINE1":"1 46046U 20055V   21261.69594493  .00331596  00000-0  12171-1 0  9993","INCLINATION":"53.0545","REF_FRAME":"TEME","RCS_SIZE":"LARGE","LAUNCH_DATE":"2020-08-07","COUNTRY_CODE":"US","BSTAR":"0.01217100000000","MEAN_MOTION_DDOT":"0.0000000000000","ARG_OF_PERICENTER":"76.8577","ELEMENT_SET_NO":"999","ECCENTRICITY":"0.00010980","OBJECT_NAME":"STARLINK-1514","OBJECT_TYPE":"PAYLOAD","FILE":"3118781","NORAD_CAT_ID":"46046","PERIAPSIS":"486.979","EPOCH":"2021-09-18T16:42:09.641952","SITE":"AFETR","OBJECT_ID":"2020-055V"},{"ELEMENT_SET_NO":"999","BSTAR":"0.00007910000000","MEAN_MOTION_DDOT":"0.0000000000000","ARG_OF_PERICENTER":"68.3017","OBJECT_NAME":"STARLINK-1524","ECCENTRICITY":"0.00011790","FILE":"3118781","NORAD_CAT_ID":"46047","OBJECT_TYPE":"PAYLOAD","OBJECT_ID":"2020-055W","SITE":"AFETR","EPOCH":"2021-09-18T16:11:09.557952","PERIAPSIS":"546.377","INCLINATION":"53.0545","REF_FRAME":"TEME","RCS_SIZE":"LARGE","COUNTRY_CODE":"US","LAUNCH_DATE":"2020-08-07","PERIOD":"95.592","TIME_SYSTEM":"UTC","RA_OF_ASC_NODE":"247.5181","MEAN_ELEMENT_THEORY":"SGP4","MEAN_ANOMALY":"291.8098","TLE_LINE1":"1 46047U 20055W   21261.67441618  .00000897  00000-0  79100-4 0  9997","MEAN_MOTION_DOT":"0.00000897","REV_AT_EPOCH":"6289","SEMIMAJOR_AXIS":"6925.328","APOAPSIS":"548.010","MEAN_MOTION":"15.06406695","GP_ID":"184971705","CENTER_NAME":"EARTH","EPHEMERIS_TYPE":"0","TLE_LINE2":"2 46047  53.0545 247.5181 0001179  68.3017 291.8098 15.06406695 62890","DECAY_DATE":null,"CLASSIFICATION_TYPE":"U"},{"MEAN_ELEMENT_THEORY":"SGP4","MEAN_ANOMALY":"285.4183","TLE_LINE1":"1 46048U 20055X   21261.67074516 -.00001271  00000-0 -66470-4 0  9992","RA_OF_ASC_NODE":"247.5360","PERIOD":"95.593","TIME_SYSTEM":"UTC","TLE_LINE2":"2 46048  53.0525 247.5360 0001241  74.6943 285.4183 15.06390877 62872","EPHEMERIS_TYPE":"0","CLASSIFICATION_TYPE":"U","DECAY_DATE":null,"SEMIMAJOR_AXIS":"6925.377","REV_AT_EPOCH":"6287","MEAN_MOTION_DOT":"-0.00001271","CENTER_NAME":"EARTH","GP_ID":"184971956","APOAPSIS":"548.101","MEAN_MOTION":"15.06390877","OBJECT_TYPE":"PAYLOAD","NORAD_CAT_ID":"46048","FILE":"3118781","EPOCH":"2021-09-18T16:05:52.381824","SITE":"AFETR","PERIAPSIS":"546.382","OBJECT_ID":"2020-055X","MEAN_MOTION_DDOT":"0.0000000000000","BSTAR":"-0.00006647000000","ARG_OF_PERICENTER":"74.6943","ELEMENT_SET_NO":"999","ECCENTRICITY":"0.00012410","OBJECT_NAME":"STARLINK-1527","RCS_SIZE":"LARGE","REF_FRAME":"TEME","COUNTRY_CODE":"US","LAUNCH_DATE":"2020-08-07","INCLINATION":"53.0525"},{"GP_ID":"184972207","CENTER_NAME":"EARTH","APOAPSIS":"548.048","MEAN_MOTION":"15.06397686","REV_AT_EPOCH":"6290","SEMIMAJOR_AXIS":"6925.356","MEAN_MOTION_DOT":"0.00000790","CLASSIFICATION_TYPE":"U","DECAY_DATE":null,"EPHEMERIS_TYPE":"0","TLE_LINE2":"2 46049  53.0539 247.5505 0001194  65.4609 294.6504 15.06397686 62901","RA_OF_ASC_NODE":"247.5505","PERIOD":"95.592","TIME_SYSTEM":"UTC","TLE_LINE1":"1 46049U 20055Y   21261.66706700  .00000790  00000-0  71912-4 0  9999","MEAN_ELEMENT_THEORY":"SGP4","MEAN_ANOMALY":"294.6504","INCLINATION":"53.0539","COUNTRY_CODE":"US","LAUNCH_DATE":"2020-08-07","REF_FRAME":"TEME","RCS_SIZE":"LARGE","ECCENTRICITY":"0.00011940","OBJECT_NAME":"STARLINK-1530","MEAN_MOTION_DDOT":"0.0000000000000","ARG_OF_PERICENTER":"65.4609","BSTAR":"0.00007191200000","ELEMENT_SET_NO":"999","EPOCH":"2021-09-18T16:00:34.588800","SITE":"AFETR","PERIAPSIS":"546.394","OBJECT_ID":"2020-055Y","OBJECT_TYPE":"PAYLOAD","NORAD_CAT_ID":"46049","FILE":"3118781"},{"BSTAR":"0.01241600000000","MEAN_MOTION_DDOT":"0.0000000000000","ARG_OF_PERICENTER":"164.8988","ELEMENT_SET_NO":"999","ECCENTRICITY":"0.00013160","OBJECT_NAME":"STARLINK-1535","OBJECT_TYPE":"PAYLOAD","NORAD_CAT_ID":"46050","FILE":"3118781","PERIAPSIS":"486.734","SITE":"AFETR","EPOCH":"2021-09-18T15:54:46.574784","OBJECT_ID":"2020-055Z","INCLINATION":"53.0521","RCS_SIZE":"LARGE","REF_FRAME":"TEME","LAUNCH_DATE":"2020-08-07","COUNTRY_CODE":"US","RA_OF_ASC_NODE":"246.5073","TIME_SYSTEM":"UTC","PERIOD":"94.361","MEAN_ANOMALY":"195.2049","MEAN_ELEMENT_THEORY":"SGP4","TLE_LINE1":"1 46050U 20055Z   21261.66303906  .00338940  00000-0  12416-1 0  9994","REV_AT_EPOCH":"6291","SEMIMAJOR_AXIS":"6865.773","MEAN_MOTION_DOT":"0.00338940","GP_ID":"184972958","CENTER_NAME":"EARTH","MEAN_MOTION":"15.26049589","APOAPSIS":"488.541","EPHEMERIS_TYPE":"0","TLE_LINE2":"2 46050  53.0521 246.5073 0001316 164.8988 195.2049 15.26049589 62912","DECAY_DATE":null,"CLASSIFICATION_TYPE":"U"},{"ARG_OF_PERICENTER":"65.2570","MEAN_MOTION_DDOT":"0.0000000000000","BSTAR":"0.00007113200000","ELEMENT_SET_NO":"999","ECCENTRICITY":"0.00013590","OBJECT_NAME":"STARLINK-1540","OBJECT_TYPE":"PAYLOAD","NORAD_CAT_ID":"46051","FILE":"3118781","PERIAPSIS":"546.293","EPOCH":"2021-09-18T16:53:38.545440","SITE":"AFETR","OBJECT_ID":"2020-055AA","INCLINATION":"53.0533","RCS_SIZE":"LARGE","REF_FRAME":"TEME","LAUNCH_DATE":"2020-08-07","COUNTRY_CODE":"US","RA_OF_ASC_NODE":"247.3879","TIME_SYSTEM":"UTC","PERIOD":"95.593","MEAN_ANOMALY":"294.8560","MEAN_ELEMENT_THEORY":"SGP4","TLE_LINE1":"1 46051U 20055AA  21261.70391835  .00000778  00000-0  71132-4 0  9996","SEMIMAJOR_AXIS":"6925.369","REV_AT_EPOCH":"6291","MEAN_MOTION_DOT":"0.00000778","GP_ID":"184971205","CENTER_NAME":"EARTH","MEAN_MOTION":"15.06393285","APOAPSIS":"548.175","TLE_LINE2":"2 46051  53.0533 247.3879 0001359  65.2570 294.8560 15.06393285 62914","EPHEMERIS_TYPE":"0","CLASSIFICATION_TYPE":"U","DECAY_DATE":null},{"TLE_LINE2":"2 46052  53.0530 247.4535 0001015  70.3384 289.7714 15.06402640 62876","EPHEMERIS_TYPE":"0","DECAY_DATE":null,"CLASSIFICATION_TYPE":"U","MEAN_MOTION_DOT":"0.00000750","SEMIMAJOR_AXIS":"6925.340","REV_AT_EPOCH":"6287","MEAN_MOTION":"15.06402640","APOAPSIS":"547.908","GP_ID":"184971456","CENTER_NAME":"EARTH","MEAN_ANOMALY":"289.7714","MEAN_ELEMENT_THEORY":"SGP4","TLE_LINE1":"1 46052U 20055AB  21261.68916440  .00000750  00000-0  69209-4 0  9991","TIME_SYSTEM":"UTC","PERIOD":"95.592","RA_OF_ASC_NODE":"247.4535","RCS_SIZE":"LARGE","REF_FRAME":"TEME","LAUNCH_DATE":"2020-08-07","COUNTRY_CODE":"US","INCLINATION":"53.0530","FILE":"3118781","NORAD_CAT_ID":"46052","OBJECT_TYPE":"PAYLOAD","OBJECT_ID":"2020-055AB","PERIAPSIS":"546.503","EPOCH":"2021-09-18T16:32:23.804160","SITE":"AFETR","ELEMENT_SET_NO":"999","MEAN_MOTION_DDOT":"0.0000000000000","ARG_OF_PERICENTER":"70.3384","BSTAR":"0.00006920900000","OBJECT_NAME":"STARLINK-1541","ECCENTRICITY":"0.00010150"},{"TIME_SYSTEM":"UTC","PERIOD":"95.593","RA_OF_ASC_NODE":"247.4365","MEAN_ANOMALY":"279.2831","MEAN_ELEMENT_THEORY":"SGP4","TLE_LINE1":"1 46053U 20055AC  21261.69285816 -.00000799  00000-0 -34745-4 0  9991","MEAN_MOTION_DOT":"-0.00000799","SEMIMAJOR_AXIS":"6925.372","REV_AT_EPOCH":"6290","MEAN_MOTION":"15.06392509","APOAPSIS":"548.173","CENTER_NAME":"EARTH","GP_ID":"184972708","TLE_LINE2":"2 46053  53.0525 247.4365 0001352  80.8311 279.2831 15.06392509 62902","EPHEMERIS_TYPE":"0","CLASSIFICATION_TYPE":"U","DECAY_DATE":null,"ELEMENT_SET_NO":"999","MEAN_MOTION_DDOT":"0.0000000000000","ARG_OF_PERICENTER":"80.8311","BSTAR":"-0.00003474500000","OBJECT_NAME":"STARLINK-1543","ECCENTRICITY":"0.00013520","FILE":"3118781","NORAD_CAT_ID":"46053","OBJECT_TYPE":"PAYLOAD","OBJECT_ID":"2020-055AC","PERIAPSIS":"546.300","EPOCH":"2021-09-18T16:37:42.945024","SITE":"AFETR","INCLINATION":"53.0525","REF_FRAME":"TEME","RCS_SIZE":"LARGE","LAUNCH_DATE":"2020-08-07","COUNTRY_CODE":"US"},{"DECAY_DATE":null,"CLASSIFICATION_TYPE":"U","TLE_LINE2":"2 46054  53.0542 247.3846 0000979  73.8423 286.2673 15.06399550 62900","EPHEMERIS_TYPE":"0","APOAPSIS":"547.893","MEAN_MOTION":"15.06399550","GP_ID":"184972458","CENTER_NAME":"EARTH","MEAN_MOTION_DOT":"0.00000613","REV_AT_EPOCH":"6290","SEMIMAJOR_AXIS":"6925.350","TLE_LINE1":"1 46054U 20055AD  21261.70022968  .00000613  00000-0  60045-4 0  9996","MEAN_ELEMENT_THEORY":"SGP4","MEAN_ANOMALY":"286.2673","PERIOD":"95.592","TIME_SYSTEM":"UTC","RA_OF_ASC_NODE":"247.3846","COUNTRY_CODE":"US","LAUNCH_DATE":"2020-08-07","RCS_SIZE":"LARGE","REF_FRAME":"TEME","INCLINATION":"53.0542","OBJECT_ID":"2020-055AD","EPOCH":"2021-09-18T16:48:19.844352","SITE":"AFETR","PERIAPSIS":"546.537","NORAD_CAT_ID":"46054","FILE":"3118781","OBJECT_TYPE":"PAYLOAD","OBJECT_NAME":"STARLINK-1548","ECCENTRICITY":"0.00009790","ELEMENT_SET_NO":"999","MEAN_MOTION_DDOT":"0.0000000000000","BSTAR":"0.00006004500000","ARG_OF_PERICENTER":"73.8423"}];
